{
  "type": "FeatureCollection",
  "features": [
    {
      "type": "Feature",
      "properties": {
        "norad_id": 66815,
        "name": "STARLINK-35985",
        "group": "last-30-days",
        "lat": -40.80097801130941,
        "lon": 94.29062422588085,
        "alt_km": 417.31125148410683,
        "timestamp": "2025-12-27T18:38:02.204235+00:00",
        "meta_object_name": "STARLINK-35985",
        "meta_object_id": "2025-278AA",
        "meta_epoch": "2025-12-27T00:00:02.999808",
        "meta_mean_motion": 15.50566195,
        "meta_eccentricity": 0.00016144,
        "meta_inclination": 43.0001,
        "meta_ra_of_asc_node": 166.7033,
        "meta_arg_of_pericenter": 275.4195,
        "meta_mean_anomaly": 352.2235,
        "meta_ephemeris_type": 0,
        "meta_classification_type": "U",
        "meta_norad_cat_id": 66815,
        "meta_element_set_no": 999,
        "meta_rev_at_epoch": 533,
        "meta_bstar": -0.0002007945,
        "meta_mean_motion_dot": -0.00012098,
        "meta_mean_motion_ddot": 0,
        "tle_line1": "1 66815U 25278AA  25361.00003472 -.00012098  00000+0 -20079-3 0  9995",
        "tle_line2": "2 66815  43.0001 166.7033 0001614 275.4195 352.2235 15.50566195  5333"
      },
      "geometry": {
        "type": "Point",
        "coordinates": [
          94.29062422588085,
          -40.80097801130941
        ]
      }
    },
    {
      "type": "Feature",
      "properties": {
        "norad_id": 66816,
        "name": "STARLINK-36098",
        "group": "last-30-days",
        "lat": -42.34365260377753,
        "lon": 84.23044298182502,
        "alt_km": 417.5797694304456,
        "timestamp": "2025-12-27T18:38:02.204247+00:00",
        "meta_object_name": "STARLINK-36098",
        "meta_object_id": "2025-278AB",
        "meta_epoch": "2025-12-27T00:00:02.999808",
        "meta_mean_motion": 15.50588317,
        "meta_eccentricity": 0.00015046,
        "meta_inclination": 43.0001,
        "meta_ra_of_asc_node": 166.7239,
        "meta_arg_of_pericenter": 268.7963,
        "meta_mean_anomaly": 351.1783,
        "meta_ephemeris_type": 0,
        "meta_classification_type": "U",
        "meta_norad_cat_id": 66816,
        "meta_element_set_no": 999,
        "meta_rev_at_epoch": 509,
        "meta_bstar": -0.00097010292,
        "meta_mean_motion_dot": -0.0005686,
        "meta_mean_motion_ddot": 0,
        "tle_line1": "1 66816U 25278AB  25361.00003472 -.00056860  00000+0 -97010-3 0  9990",
        "tle_line2": "2 66816  43.0001 166.7239 0001504 268.7963 351.1783 15.50588317  5097"
      },
      "geometry": {
        "type": "Point",
        "coordinates": [
          84.23044298182502,
          -42.34365260377753
        ]
      }
    },
    {
      "type": "Feature",
      "properties": {
        "norad_id": 66817,
        "name": "STARLINK-35995",
        "group": "last-30-days",
        "lat": -41.68079683885115,
        "lon": 89.33215382603711,
        "alt_km": 417.35684248099005,
        "timestamp": "2025-12-27T18:38:02.204257+00:00",
        "meta_object_name": "STARLINK-35995",
        "meta_object_id": "2025-278AC",
        "meta_epoch": "2025-12-27T00:00:02.999808",
        "meta_mean_motion": 15.50570945,
        "meta_eccentricity": 0.00016404,
        "meta_inclination": 43.0001,
        "meta_ra_of_asc_node": 166.7136,
        "meta_arg_of_pericenter": 274.3713,
        "meta_mean_anomaly": 349.4376,
        "meta_ephemeris_type": 0,
        "meta_classification_type": "U",
        "meta_norad_cat_id": 66817,
        "meta_element_set_no": 999,
        "meta_rev_at_epoch": 525,
        "meta_bstar": -0.00037422385,
        "meta_mean_motion_dot": -0.00022227,
        "meta_mean_motion_ddot": 0,
        "tle_line1": "1 66817U 25278AC  25361.00003472 -.00022227  00000+0 -37422-3 0  9992",
        "tle_line2": "2 66817  43.0001 166.7136 0001640 274.3713 349.4376 15.50570945  5255"
      },
      "geometry": {
        "type": "Point",
        "coordinates": [
          89.33215382603711,
          -41.68079683885115
        ]
      }
    },
    {
      "type": "Feature",
      "properties": {
        "norad_id": 66818,
        "name": "STARLINK-35994",
        "group": "last-30-days",
        "lat": -26.791717950155938,
        "lon": 15.132309720995607,
        "alt_km": 445.9136953822526,
        "timestamp": "2025-12-27T18:38:02.204269+00:00",
        "meta_object_name": "STARLINK-35994",
        "meta_object_id": "2025-278AD",
        "meta_epoch": "2025-12-27T12:00:02.000160",
        "meta_mean_motion": 15.40647901,
        "meta_eccentricity": 0.0002193,
        "meta_inclination": 43.0001,
        "meta_ra_of_asc_node": 163.9136,
        "meta_arg_of_pericenter": 281.9967,
        "meta_mean_anomaly": 204.5538,
        "meta_ephemeris_type": 0,
        "meta_classification_type": "U",
        "meta_norad_cat_id": 66818,
        "meta_element_set_no": 999,
        "meta_rev_at_epoch": 533,
        "meta_bstar": 0.0012514,
        "meta_mean_motion_dot": 0.0005224,
        "meta_mean_motion_ddot": 0,
        "tle_line1": "1 66818U 25278AD  25361.50002315  .00052240  00000+0  12514-2 0  9993",
        "tle_line2": "2 66818  43.0001 163.9136 0002193 281.9967 204.5538 15.40647901  5330"
      },
      "geometry": {
        "type": "Point",
        "coordinates": [
          15.132309720995607,
          -26.791717950155938
        ]
      }
    },
    {
      "type": "Feature",
      "properties": {
        "norad_id": 66819,
        "name": "STARLINK-35989",
        "group": "last-30-days",
        "lat": -41.26809210286631,
        "lon": 91.82517981632519,
        "alt_km": 417.4610789674143,
        "timestamp": "2025-12-27T18:38:02.204279+00:00",
        "meta_object_name": "STARLINK-35989",
        "meta_object_id": "2025-278AE",
        "meta_epoch": "2025-12-27T00:00:02.999808",
        "meta_mean_motion": 15.50571322,
        "meta_eccentricity": 0.00014601,
        "meta_inclination": 43.0001,
        "meta_ra_of_asc_node": 166.7083,
        "meta_arg_of_pericenter": 275.0069,
        "meta_mean_anomaly": 350.7199,
        "meta_ephemeris_type": 0,
        "meta_classification_type": "U",
        "meta_norad_cat_id": 66819,
        "meta_element_set_no": 999,
        "meta_rev_at_epoch": 525,
        "meta_bstar": -0.00037010918,
        "meta_mean_motion_dot": -0.00021987,
        "meta_mean_motion_ddot": 0,
        "tle_line1": "1 66819U 25278AE  25361.00003472 -.00021987  00000+0 -37011-3 0  9990",
        "tle_line2": "2 66819  43.0001 166.7083 0001460 275.0069 350.7199 15.50571322  5258"
      },
      "geometry": {
        "type": "Point",
        "coordinates": [
          91.82517981632519,
          -41.26809210286631
        ]
      }
    },
    {
      "type": "Feature",
      "properties": {
        "norad_id": 66820,
        "name": "KOMPSAT-7",
        "group": "last-30-days",
        "lat": 23.651304690245468,
        "lon": 130.75761905692232,
        "alt_km": 559.3981025613757,
        "timestamp": "2025-12-27T18:38:02.204289+00:00",
        "meta_object_name": "KOMPSAT-7",
        "meta_object_id": "2025-279A",
        "meta_epoch": "2025-12-27T06:44:23.364672",
        "meta_mean_motion": 15.00856737,
        "meta_eccentricity": 0.00099979,
        "meta_inclination": 97.6456,
        "meta_ra_of_asc_node": 306.8974,
        "meta_arg_of_pericenter": 208.4889,
        "meta_mean_anomaly": 151.579,
        "meta_ephemeris_type": 0,
        "meta_classification_type": "U",
        "meta_norad_cat_id": 66820,
        "meta_element_set_no": 999,
        "meta_rev_at_epoch": 383,
        "meta_bstar": 0.00026762105,
        "meta_mean_motion_dot": 3.347e-05,
        "meta_mean_motion_ddot": 0,
        "tle_line1": "1 66820U 25279A   25361.28082598  .00003347  00000+0  26762-3 0  9998",
        "tle_line2": "2 66820  97.6456 306.8974 0009997 208.4889 151.5790 15.00856737  3835"
      },
      "geometry": {
        "type": "Point",
        "coordinates": [
          130.75761905692232,
          23.651304690245468
        ]
      }
    },
    {
      "type": "Feature",
      "properties": {
        "norad_id": 66821,
        "name": "STARLINK-35966",
        "group": "last-30-days",
        "lat": 34.11408308704279,
        "lon": -37.05318360778052,
        "alt_km": 410.8204074172254,
        "timestamp": "2025-12-27T18:38:02.204299+00:00",
        "meta_object_name": "STARLINK-35966",
        "meta_object_id": "2025-280A",
        "meta_epoch": "2025-12-27T11:49:57.362592",
        "meta_mean_motion": 15.52372791,
        "meta_eccentricity": 0.0006581,
        "meta_inclination": 70.0004,
        "meta_ra_of_asc_node": 158.0065,
        "meta_arg_of_pericenter": 290.4038,
        "meta_mean_anomaly": 69.6441,
        "meta_ephemeris_type": 0,
        "meta_classification_type": "U",
        "meta_norad_cat_id": 66821,
        "meta_element_set_no": 999,
        "meta_rev_at_epoch": 522,
        "meta_bstar": -0.00020586,
        "meta_mean_motion_dot": -0.00012756,
        "meta_mean_motion_ddot": 0,
        "tle_line1": "1 66821U 25280A   25361.49302503 -.00012756  00000+0 -20586-3 0  9999",
        "tle_line2": "2 66821  70.0004 158.0065 0006581 290.4038  69.6441 15.52372791  5228"
      },
      "geometry": {
        "type": "Point",
        "coordinates": [
          -37.05318360778052,
          34.11408308704279
        ]
      }
    }
  ]
}